OBJECT_NAME,OBJECT_ID,EPOCH,MEAN_MOTION,ECCENTRICITY,INCLINATION,RA_OF_ASC_NODE,ARG_OF_PERICENTER,MEAN_ANOMALY,EPHEMERIS_TYPE,CLASSIFICATION_TYPE,NORAD_CAT_ID,ELEMENT_SET_NO,REV_AT_EPOCH,BSTAR,MEAN_MOTION_DOT,MEAN_MOTION_DDOT
OPS 6582 (TRANSIT 5B-5),1964-083D,2026-07-10T00:26:32.427168,13.57014877,.00405474,90.0756,203.2220,208.5557,179.2762,0,U,965,999,4671,.41220816E-4,.39E-6,0
SOLRAD 7B,1965-016D,2026-07-09T09:52:36.738912,13.94978161,.0018374,70.0771,189.0141,92.1428,268.1782,0,U,1291,999,11980,.48632627E-4,.13E-6,0
SECOR 4 (EGRS 4),1965-027B,2026-07-10T00:47:21.932736,12.92668112,.00322753,90.2488,16.0914,138.3503,20.7794,0,U,1315,999,88987,-.15321219E-3,-.34E-6,0
TIROS 10,1965-051A,2026-07-09T06:04:14.149056,14.41638508,.00554828,98.5060,309.4891,14.0677,346.2042,0,U,1430,999,19909,.36567633E-4,.76E-6,0
ALOUETTE 2,1965-098A,2026-07-10T03:13:45.712704,12.28371400,.13306067,79.7977,257.1273,185.9855,172.3830,0,U,1804,999,68209,.14346177E-3,.447E-5,0
OV3-3,1966-070A,2026-07-10T06:16:42.449088,13.46157635,.1009165,81.3265,310.6461,97.8048,273.8683,0,U,2389,999,60207,.50248371E-3,.11388E-3,0
ISIS 1,1969-009A,2026-07-10T07:03:25.503552,11.30436169,.1707051,88.4449,141.8620,201.5501,150.4416,0,U,3669,999,36238,.23884374E-4,.41E-6,0
SECOR 13 (EGRS 13),1969-037B,2026-07-10T03:12:58.057056,13.42977777,.00392439,99.6455,61.6216,193.8922,320.3667,0,U,3891,999,80483,.14086695E-4,-.34E-6,0
OPS 7613 (P/L 4),1969-082E,2026-07-10T01:05:58.468704,13.95999876,.00179742,70.0146,55.0595,101.7591,65.3186,0,U,4237,999,88949,.23438011E-4,-.21E-6,0
OPS 7613 (P/L 1),1969-082B,2026-07-10T06:08:00.803904,13.99202954,.00182012,70.0097,275.4584,28.1614,332.0474,0,U,4256,999,89369,.49106328E-4,.18E-6,0
SHINSEI (MS-F2),1971-080A,2026-07-09T12:03:17.342784,12.74254186,.06399185,32.0571,6.5693,186.6680,172.5037,0,U,5485,999,55210,.74933962E-4,.67E-6,0
PROSPERO (BLACK ARROW),1971-093A,2026-07-10T05:09:13.642272,14.01682092,.05017321,82.0380,270.6160,160.9742,201.0948,0,U,5580,999,75175,.31902106E-3,.1515E-4,0
OPS 7898 (P/L 2),1971-110C,2026-07-09T12:10:18.014016,13.74760567,.00065984,69.9910,316.8570,159.1484,200.9880,0,U,5680,999,35128,.27201444E-4,-.24E-6,0
NOAA 2 (ITOS-D),1972-082A,2026-07-10T00:37:52.906656,12.53215694,.00045299,102.0073,209.8478,124.1962,263.9397,0,U,6235,999,45781,.66614823E-4,-.36E-6,0
OSCAR 7 (AO-7),1974-089B,2026-07-10T06:51:38.058624,12.53698448,.00126625,101.9903,204.7731,87.4352,340.9074,0,U,7530,999,36341,.81096817E-4,-.33E-6,0
TIROS N,1978-096A,2026-07-10T07:55:51.892608,14.19381583,.00106235,98.4529,211.3348,168.6075,191.5344,0,U,11060,999,68203,.48922023E-4,.62E-6,0
HILAT,1983-063A,2026-07-09T15:43:12.259200,14.38725502,.00381391,82.0251,140.1396,221.0607,312.6641,0,U,14154,999,25081,.71168621E-4,.236E-5,0
UOSAT 2 (UO-11),1984-021B,2026-07-09T16:56:58.956288,14.90840274,.00091678,97.8072,156.0317,106.4358,253.7868,0,U,14781,999,26048,.98723401E-4,.917E-5,0
NOAA 9,1984-123A,2026-07-10T01:42:32.577696,14.17074006,.00135908,99.0983,218.2389,286.3092,89.3562,0,U,15427,999,14666,.42703362E-4,.39E-6,0
GEOSAT,1985-021A,2026-07-09T12:26:20.614560,14.39977143,.00017251,108.0410,127.9161,295.3058,64.7905,0,U,15595,999,16598,.57826907E-4,.46E-6,0
PACSAT (AO-16),1990-005D,2026-07-10T07:55:43.434912,14.33943756,.00110113,98.8513,227.5516,158.3621,214.3633,0,U,20439,999,90525,.37520262E-4,.58E-6,0
LUSAT (LO-19),1990-005G,2026-07-09T23:54:39.065472,14.34129751,.00123476,98.8846,213.4297,135.6081,224.6095,0,U,20442,999,90566,.35474089E-4,.53E-6,0
IRS-1B,1991-061A,2026-07-10T07:11:10.682880,13.97875101,.00233321,99.4110,199.8221,301.6413,68.6223,0,U,21688,999,67172,.11558492E-3,.117E-5,0
COSMOS 2197,1992-042A,2026-07-10T07:49:17.549184,12.64252564,.00118941,82.5918,214.1491,216.7406,154.1102,0,U,22034,999,56821,.14618468E-3,.37E-6,0
