1 00965U 64083D   26191.01843087  .00000039  00000-0  41221-4 0  9997
2 00965  90.0756 203.2220 0040547 208.5557 179.2762 13.57014877 46717
1 01291U 65016D   26190.41153633  .00000013  00000-0  48633-4 0  9997
2 01291  70.0771 189.0141 0018374  92.1428 268.1782 13.94978161119802
1 01315U 65027B   26191.03289274 -.00000034  00000-0 -15321-3 0  9998
2 01315  90.2488  16.0914 0032275 138.3503  20.7794 12.92668112889873
1 01430U 65051A   26190.25294154  .00000076  00000-0  36568-4 0  9990
2 01430  98.5060 309.4891 0055483  14.0677 346.2042 14.41638508199091
1 01804U 65098A   26191.13455686  .00000447  00000-0  14346-3 0  9994
2 01804  79.7977 257.1273 1330607 185.9855 172.3830 12.28371400682096
1 02389U 66070A   26191.26160242  .00011388  00000-0  50248-3 0  9996
2 02389  81.3265 310.6461 1009165  97.8048 273.8683 13.46157635602071
1 03669U 69009A   26191.29404518  .00000041  00000-0  23884-4 0  9994
2 03669  88.4449 141.8620 1707051 201.5501 150.4416 11.30436169362387
1 03891U 69037B   26191.13400529 -.00000034  00000-0  14087-4 0  9991
2 03891  99.6455  61.6216 0039244 193.8922 320.3667 13.42977777804833
1 04237U 69082E   26191.04581561 -.00000021  00000-0  23438-4 0  9998
2 04237  70.0146  55.0595 0017974 101.7591  65.3186 13.95999876889490
1 04256U 69082B   26191.25556486  .00000018  00000-0  49106-4 0  9995
2 04256  70.0097 275.4584 0018201  28.1614 332.0474 13.99202954893693
1 05485U 71080A   26190.50228406  .00000067  00000-0  74934-4 0  9997
2 05485  32.0571   6.5693 0639918 186.6680 172.5037 12.74254186552100
1 05580U 71093A   26191.21474123  .00001515  00000-0  31902-3 0  9991
2 05580  82.0380 270.6160 0501732 160.9742 201.0948 14.01682092751752
1 05680U 71110C   26190.50715294 -.00000024  00000-0  27201-4 0  9993
2 05680  69.9910 316.8570 0006598 159.1484 200.9880 13.74760567351287
1 06235U 72082A   26191.02630679 -.00000036  00000-0  66615-4 0  9995
2 06235 102.0073 209.8478 0004530 124.1962 263.9397 12.53215694457818
1 07530U 74089B   26191.28585716 -.00000033  00000-0  81097-4 0  9990
2 07530 101.9903 204.7731 0012663  87.4352 340.9074 12.53698448363415
1 11060U 78096A   26191.33046172  .00000062  00000-0  48922-4 0  9990
2 11060  98.4529 211.3348 0010623 168.6075 191.5344 14.19381583682033
1 14154U 83063A   26190.65500300  .00000236  00000-0  71169-4 0  9991
2 14154  82.0251 140.1396 0038139 221.0607 312.6641 14.38725502250817
1 14781U 84021B   26190.70623792  .00000917  00000-0  98723-4 0  9990
2 14781  97.8072 156.0317 0009168 106.4358 253.7868 14.90840274260488
1 15427U 84123A   26191.07121039  .00000039  00000-0  42703-4 0  9991
2 15427  99.0983 218.2389 0013591 286.3092  89.3562 14.17074006146667
1 15595U 85021A   26190.51829415  .00000046  00000-0  57827-4 0  9997
2 15595 108.0410 127.9161 0001725 295.3058  64.7905 14.39977143165983
1 20439U 90005D   26191.33036383  .00000058  00000-0  37520-4 0  9994
2 20439  98.8513 227.5516 0011011 158.3621 214.3633 14.33943756905250
1 20442U 90005G   26190.99628548  .00000053  00000-0  35474-4 0  9990
2 20442  98.8846 213.4297 0012348 135.6081 224.6095 14.34129751905668
1 21688U 91061A   26191.29942920  .00000117  00000-0  11558-3 0  9990
2 21688  99.4110 199.8221 0023332 301.6413  68.6223 13.97875101671726
1 22034U 92042A   26191.32589756  .00000037  00000-0  14618-3 0  9995
2 22034  82.5918 214.1491 0011894 216.7406 154.1102 12.64252564568210
